H1 CPF  1  HTS 2022  7 26 12  7071 larets           NONE
H2  0304206 5557    27944 2022 07 26  0  0  0 2022 07 31  0  0  0   180 1 1  0 0 0
H5  0.0560 
H9 
10 0 59788  46440.00000  0   -6704531.003   -2245044.182     111050.677
10 0 59788  46620.00000  0   -6647029.888   -1927724.653    1437816.061
10 0 59788  46800.00000  0   -6338909.433   -1545185.871    2711968.362
10 0 59788  46980.00000  0   -5789785.208   -1117743.814    3886834.723
10 0 59788  47160.00000  0   -5018646.501    -666996.694    4919358.933
10 0 59788  47340.00000  0   -4053164.760    -214791.901    5771694.985
10 0 59788  47520.00000  0   -2928663.350     217789.783    6412590.728
10 0 59788  47700.00000  0   -1686788.165     611386.692    6818520.648
10 0 59788  47880.00000  0    -373938.014     949201.019    6974530.168
10 0 59788  48060.00000  0     960480.773    1217706.575    6874772.874
10 0 59788  48240.00000  0    2265916.161    1407193.445    6522733.680
10 0 59788  48420.00000  0    3492592.821    1512129.790    5931131.829
10 0 59788  48600.00000  0    4593434.343    1531326.206    5121500.062
10 0 59788  48780.00000  0    5525913.448    1467897.077    4123441.513
10 0 59788  48960.00000  0    6253764.701    1329020.698    2973578.414
10 0 59788  49140.00000  0    6748472.846    1125503.668    1714205.746
10 0 59788  49320.00000  0    6990459.839     871168.136     391706.319
10 0 59788  49500.00000  0    6969906.308     582093.988    -945215.061
10 0 59788  49680.00000  0    6687156.975     275754.307   -2247398.204
10 0 59788  49860.00000  0    6152686.023     -29908.536   -3467101.042
10 0 59788  50040.00000  0    5386636.678    -317413.963   -4559792.297
10 0 59788  50220.00000  0    4417964.887    -570629.771   -5485784.136
10 0 59788  50400.00000  0    3283248.702    -775568.887   -6211637.276
10 0 59788  50580.00000  0    2025233.471    -921064.438   -6711303.837
10 0 59788  50760.00000  0     691180.405    -999293.526   -6966979.449
10 0 59788  50940.00000  0    -668909.674   -1006134.934   -6969660.809
10 0 59788  51120.00000  0   -2004140.856    -941349.962   -6719409.809
10 0 59788  51300.00000  0   -3264581.264    -808583.774   -6225327.190
10 0 59788  51480.00000  0   -4403082.878    -615188.263   -5505240.054
10 0 59788  51660.00000  0   -5377020.287    -371873.602   -4585113.731
10 0 59788  51840.00000  0   -6149893.909     -92198.831   -3498183.916
10 0 59788  52020.00000  0   -6692739.010     208081.757   -2283822.452
10 0 59788  52200.00000  0   -6985275.400     511793.097    -986157.184
10 0 59788  52380.00000  0   -7016737.544     801200.739     347516.473
10 0 59788  52560.00000  0   -6786325.645    1058916.175    1668474.317
10 0 59788  52740.00000  0   -6303255.045    1268800.922    2928371.976
10 0 59788  52920.00000  0   -5586394.831    1416821.451    4081053.806
10 0 59788  53100.00000  0   -4663505.870    1491808.728    5084275.324
10 0 59788  53280.00000  0   -3570125.893    1486083.711    5901262.289
10 0 59788  53460.00000  0   -2348162.660    1395919.441    6502054.172
10 0 59788  53640.00000  0   -1044252.428    1221819.714    6864590.539
10 0 59788  53820.00000  0     292045.294     968600.346    6975499.134
10 0 59788  54000.00000  0    1610138.167     645269.874    6830576.138
10 0 59788  54180.00000  0    2860319.548     264713.617    6434954.287
10 0 59788  54360.00000  0    3995656.767    -156811.089    5802951.421
10 0 59788  54540.00000  0    4973787.523    -600354.691    4957592.709
10 0 59788  54720.00000  0    5758555.221   -1045106.464    3929810.515
10 0 59788  54900.00000  0    6321418.152   -1469344.373    2757336.619
10 0 59788  55080.00000  0    6642564.472   -1851461.463    1483312.137
10 0 59788  55260.00000  0    6711670.292   -2171017.050     154664.924
10 0 59788  55440.00000  0    6528257.638   -2409760.158   -1179680.036
10 0 59788  55620.00000  0    6101626.478   -2552565.250   -2470676.298
10 0 59788  55800.00000  0    5450365.840   -2588230.079   -3671022.931
10 0 59788  55980.00000  0    4601481.198   -2510093.325   -4736932.319
10 0 59788  56160.00000  0    3589196.835   -2316447.103   -5629726.705
10 0 59788  56340.00000  0    2453499.070   -2010727.646   -6317200.406
10 0 59788  56520.00000  0    1238508.710   -1601482.607   -6774709.768
10 0 59788  56700.00000  0      -9250.612   -1102121.632   -6985977.883
10 0 59788  56880.00000  0   -1242620.498    -530465.645   -6943598.072
10 0 59788  57060.00000  0   -2415552.312      91886.996   -6649245.173
10 0 59788  57240.00000  0   -3484781.287     740360.896   -6113596.609
10 0 59788  57420.00000  0   -4411383.727    1388346.024   -5355972.381
10 0 59788  57600.00000  0   -5162183.344    2008256.470   -4403697.371
10 0 59788  57780.00000  0   -5710959.048    2572676.438   -3291184.823
10 0 59788  57960.00000  0   -6039402.517    3055545.782   -2058754.008
10 0 59788  58140.00000  0   -6137784.622    3433335.690    -751211.657
10 0 59788  58320.00000  0   -6005289.174    3686160.355     583765.005
10 0 59788  58500.00000  0   -5649986.436    3798763.596    1897384.881
10 0 59788  58680.00000  0   -5088435.091    3761325.073    3141561.897
10 0 59788  58860.00000  0   -4344935.282    3570043.122    4270711.244
10 0 59788  59040.00000  0   -3450470.925    3227462.065    5243447.702
10 0 59788  59220.00000  0   -2441396.929    2742529.473    6024112.845
10 0 59788  59400.00000  0   -1357933.943    2130382.552    6584077.015
10 0 59788  59580.00000  0    -242541.395    1411870.998    6902769.253
10 0 59788  59760.00000  0     861755.435     612839.746    6968410.852
10 0 59788  59940.00000  0    1913027.938    -236802.454    6778444.344
10 0 59788  60120.00000  0    2872042.291   -1104200.273    6339646.778
10 0 59788  60300.00000  0    3703742.094   -1954823.117    5667921.482
10 0 59788  60480.00000  0    4378566.258   -2753847.821    4787762.536
10 0 59788  60660.00000  0    4873547.962   -3467602.122    3731398.453
10 0 59788  60840.00000  0    5173151.232   -4065012.559    2537632.345
10 0 59788  61020.00000  0    5269800.359   -4518984.814    1250403.846
10 0 59788  61200.00000  0    5164066.625   -4807645.043     -82869.991
10 0 59788  61380.00000  0    4864503.393   -4915376.710   -1413103.945
10 0 59788  61560.00000  0    4387135.964   -4833592.898   -2691423.847
10 0 59788  61740.00000  0    3754634.312   -4561202.400   -3871023.013
10 0 59788  61920.00000  0    2995220.481   -4104750.983   -4908907.714
10 0 59788  62100.00000  0    2141375.427   -3478237.921   -5767457.066
10 0 59788  62280.00000  0    1228419.364   -2702630.458   -6415736.132
10 0 59788  62460.00000  0     293039.644   -1805113.556   -6830537.490
10 0 59788  62640.00000  0    -628177.192    -818103.236   -6997132.147
10 0 59788  62820.00000  0   -1500148.736     221931.581   -6909719.116
10 0 59788  63000.00000  0   -2290596.439    1275795.922   -6571583.763
10 0 59788  63180.00000  0   -2971206.296    2303009.127   -5994969.379
10 0 59788  63360.00000  0   -3518621.054    3263321.418   -5200669.451
10 0 59788  63540.00000  0   -3915242.037    4118267.638   -4217340.428
10 0 59788  63720.00000  0   -4149809.459    4832703.872   -3080533.147
10 0 59788  63900.00000  0   -4217730.673    5376263.523   -1831465.284
10 0 59788  64080.00000  0   -4121146.712    5724671.682    -515567.441
10 0 59788  64260.00000  0   -3868724.480    5860853.347     819161.060
10 0 59788  64440.00000  0   -3475175.335    5775766.796    2123922.989
10 0 59788  64620.00000  0   -2960517.992    5468915.368    3350947.713
10 0 59788  64800.00000  0   -2349118.075    4948499.278    4455278.276
10 0 59788  64980.00000  0   -1668563.282    4231208.517    5396440.282
10 0 59788  65160.00000  0    -948430.573    3341668.417    6139932.796
10 0 59788  65340.00000  0    -219004.369    2311562.887    6658482.708
10 0 59788  65520.00000  0     489992.895    1178480.144    6933024.107
10 0 59788  65700.00000  0    1150609.705     -15472.544    6953383.176
10 0 59788  65880.00000  0    1737769.370   -1225236.890    6718651.943
10 0 59788  66060.00000  0    2230230.461   -2404506.764    6237246.215
10 0 59788  66240.00000  0    2611372.786   -3507513.569    5526638.811
10 0 59788  66420.00000  0    2869780.024   -4490832.299    4612765.099
10 0 59788  66600.00000  0    2999595.382   -5315137.643    3529110.222
10 0 59788  66780.00000  0    3000635.874   -5946838.069    2315495.369
10 0 59788  66960.00000  0    2878252.521   -6359507.456    1016597.759
10 0 59788  67140.00000  0    2642941.445   -6535035.275    -319737.217
10 0 59788  67320.00000  0    2309728.224   -6464439.565   -1644321.845
10 0 59788  67500.00000  0    1897350.189   -6148288.003   -2908511.784
10 0 59788  67680.00000  0    1427283.484   -5596706.436   -4066051.883
10 0 59788  67860.00000  0     922674.023   -4828977.045   -5074793.724
10 0 59788  68040.00000  0     407238.218   -3872770.627   -5898211.960
10 0 59788  68220.00000  0     -95816.468   -2763063.911   -6506673.591
10 0 59788  68400.00000  0    -564801.481   -1540798.629   -6878426.684
10 0 59788  68580.00000  0    -980446.932    -251345.652   -7000295.525
10 0 59788  68760.00000  0   -1326660.985    1057169.430   -6868080.803
10 0 59788  68940.00000  0   -1591128.840    2335624.627   -6486666.588
10 0 59788  69120.00000  0   -1765735.682    3535696.948   -5869844.017
10 0 59788  69300.00000  0   -1846805.304    4611652.424   -5039854.791
10 0 59788  69480.00000  0   -1835147.457    5522078.111   -4026652.231
10 0 59788  69660.00000  0   -1735911.277    6231494.290   -2866884.925
10 0 59788  69840.00000  0   -1558245.578    6711777.521   -1602625.849
10 0 59788  70020.00000  0   -1314779.957    6943333.368    -279879.385
10 0 59788  70200.00000  0   -1020946.716    6915954.785    1053086.729
10 0 59788  70380.00000  0    -694173.185    6629315.307    2347528.615
10 0 59788  70560.00000  0    -352985.431    6093046.531    3556050.416
10 0 59788  70740.00000  0     -16071.956    5326406.728    4634369.386
99
